[{"OBJECT_NAME":"STARLINK-3549","OBJECT_ID":"2022-022AR","EPOCH":"2026-03-09T22:37:42.045600","MEAN_MOTION":15.08842722,"ECCENTRICITY":0.00016581,"INCLINATION":53.2191,"RA_OF_ASC_NODE":357.9854,"ARG_OF_PERICENTER":94.6589,"MEAN_ANOMALY":265.4592,"EPHEMERIS_TYPE":0,"CLASSIFICATION_TYPE":"U","NORAD_CAT_ID":51891,"ELEMENT_SET_NO":999,"REV_AT_EPOCH":22333,"BSTAR":-1.3633461e-5,"MEAN_MOTION_DOT":-5.05e-6,"MEAN_MOTION_DDOT":0},{"OBJECT_NAME":"COSMOS 1408 DEB","OBJECT_ID":"1982-092ADS","EPOCH":"2026-03-09T15:14:01.495392","MEAN_MOTION":15.34178134,"ECCENTRICITY":0.0122957,"INCLINATION":82.1939,"RA_OF_ASC_NODE":124.7493,"ARG_OF_PERICENTER":254.6382,"MEAN_ANOMALY":104.1246,"EPHEMERIS_TYPE":0,"CLASSIFICATION_TYPE":"U","NORAD_CAT_ID":50404,"ELEMENT_SET_NO":999,"REV_AT_EPOCH":22516,"BSTAR":0.0029669,"MEAN_MOTION_DOT":0.00127192,"MEAN_MOTION_DDOT":0}]
